{"type": "FeatureCollection", "features": [ {"type": "Feature", "properties": {"norad_id": 29973, "name": "FENGYUN 1C DEB", "group": "fengyun-1c-debris", "lat": 57.17357890153318, "lon": -172.70463077314966, "alt_km": 823.1930803495952, "timestamp": "2025-12-18T23:35:49.333205+00:00", "meta": {"OBJECT_NAME": "FENGYUN 1C DEB", "OBJECT_ID": "1999-025KX", "EPOCH": "2025-12-18T11:50:23.735328", "MEAN_MOTION": 14.0654741, "ECCENTRICITY": 0.00594574, "INCLINATION": 98.8423, "RA_OF_ASC_NODE": 352.8537, "ARG_OF_PERICENTER": 132.9395, "MEAN_ANOMALY": 29.6954, "EPHEMERIS_TYPE": 0, "CLASSIFICATION_TYPE": "U", "NORAD_CAT_ID": 29973, "ELEMENT_SET_NO": 999, "REV_AT_EPOCH": 96799, "BSTAR": 0.00045468841, "MEAN_MOTION_DOT": 7.22e-06, "MEAN_MOTION_DDOT": 0}, "tle": {"line1": "1 29973U 99025KX  25352.49333027  .00000722  00000+0  45469-3 0  9994", "line2": "2 29973  98.8423 352.8537 0059457 132.9395  29.6954 14.06547410967998"}}, "geometry": {"type": "Point", "coordinates": [-172.70463077314966, 57.17357890153318]}}, {"type": "Feature", "properties": {"norad_id": 29974, "name": "FENGYUN 1C DEB", "group": "fengyun-1c-debris", "lat": 11.866854716751062, "lon": -100.9788177031066, "alt_km": 851.5894358989517, "timestamp": "2025-12-18T23:35:49.333216+00:00", "meta": {"OBJECT_NAME": "FENGYUN 1C DEB", "OBJECT_ID": "1999-025KY", "EPOCH": "2025-12-18T04:24:58.328352", "MEAN_MOTION": 14.14870186, "ECCENTRICITY": 0.00464005, "INCLINATION": 98.8942, "RA_OF_ASC_NODE": 76.3393, "ARG_OF_PERICENTER": 66.7574, "MEAN_ANOMALY": 352.1066, "EPHEMERIS_TYPE": 0, "CLASSIFICATION_TYPE": "U", "NORAD_CAT_ID": 29974, "ELEMENT_SET_NO": 999, "REV_AT_EPOCH": 97002, "BSTAR": 0.00091640139, "MEAN_MOTION_DOT": 1.744e-05, "MEAN_MOTION_DDOT": 0}, "tle": {"line1": "1 29974U 99025KY  25352.18400843  .00001744  00000+0  91640-3 0  9999", "line2": "2 29974  98.8942  76.3393 0046400  66.7574 352.1066 14.14870186970024"}}, "geometry": {"type": "Point", "coordinates": [-100.9788177031066, 11.866854716751062]}}, {"type": "Feature", "properties": {"norad_id": 29975, "name": "FENGYUN 1C DEB", "group": "fengyun-1c-debris", "lat": 32.46972538264949, "lon": -139.8335439935984, "alt_km": 969.9177797819984, "timestamp": "2025-12-18T23:35:49.333227+00:00", "meta": {"OBJECT_NAME": "FENGYUN 1C DEB", "OBJECT_ID": "1999-025KZ", "EPOCH": "2025-12-18T14:52:23.492640", "MEAN_MOTION": 13.98026845, "ECCENTRICITY": 0.01132586, "INCLINATION": 99.3383, "RA_OF_ASC_NODE": 33.7866, "ARG_OF_PERICENTER": 357.7546, "MEAN_ANOMALY": 120.1075, "EPHEMERIS_TYPE": 0, "CLASSIFICATION_TYPE": "U", "NORAD_CAT_ID": 29975, "ELEMENT_SET_NO": 999, "REV_AT_EPOCH": 96519, "BSTAR": 6.5066452e-05, "MEAN_MOTION_DOT": 5.1e-07, "MEAN_MOTION_DDOT": 0}, "tle": {"line1": "1 29975U 99025KZ  25352.61971635  .00000051  00000+0  65066-4 0  9994", "line2": "2 29975  99.3383  33.7866 0113258 357.7546 120.1075 13.98026845965191"}}, "geometry": {"type": "Point", "coordinates": [-139.8335439935984, 32.46972538264949]}}, {"type": "Feature", "properties": {"norad_id": 29976, "name": "FENGYUN 1C DEB", "group": "fengyun-1c-debris", "lat": -32.14959415223343, "lon": -4.21231185794401, "alt_km": 952.8994409580264, "timestamp": "2025-12-18T23:35:49.333238+00:00", "meta": {"OBJECT_NAME": "FENGYUN 1C DEB", "OBJECT_ID": "1999-025LA", "EPOCH": "2025-12-18T10:47:13.598016", "MEAN_MOTION": 13.98115886, "ECCENTRICITY": 0.02674398, "INCLINATION": 98.9183, "RA_OF_ASC_NODE": 349.6047, "ARG_OF_PERICENTER": 223.6635, "MEAN_ANOMALY": 295.8871, "EPHEMERIS_TYPE": 0, "CLASSIFICATION_TYPE": "U", "NORAD_CAT_ID": 29976, "ELEMENT_SET_NO": 999, "REV_AT_EPOCH": 96416, "BSTAR": 0.00036542188, "MEAN_MOTION_DOT": 6.61e-06, "MEAN_MOTION_DDOT": 0}, "tle": {"line1": "1 29976U 99025LA  25352.44946294  .00000661  00000+0  36542-3 0  9992", "line2": "2 29976  98.9183 349.6047 0267439 223.6635 295.8871 13.98115886964160"}}, "geometry": {"type": "Point", "coordinates": [-4.21231185794401, -32.14959415223343]}}, {"type": "Feature", "properties": {"norad_id": 29977, "name": "FENGYUN 1C DEB", "group": "fengyun-1c-debris", "lat": 51.95522684253053, "lon": -156.30818644634033, "alt_km": 963.7922251095224, "timestamp": "2025-12-18T23:35:49.333248+00:00", "meta": {"OBJECT_NAME": "FENGYUN 1C DEB", "OBJECT_ID": "1999-025LB", "EPOCH": "2025-12-15T02:05:24.079200", "MEAN_MOTION": 14.0509794, "ECCENTRICITY": 0.0128352, "INCLINATION": 98.3968, "RA_OF_ASC_NODE": 210.9629, "ARG_OF_PERICENTER": 250.2626, "MEAN_ANOMALY": 265.3537, "EPHEMERIS_TYPE": 0, "CLASSIFICATION_TYPE": "U", "NORAD_CAT_ID": 29977, "ELEMENT_SET_NO": 999, "REV_AT_EPOCH": 96393, "BSTAR": 0.001211704, "MEAN_MOTION_DOT": 2.064e-05, "MEAN_MOTION_DDOT": 0}, "tle": {"line1": "1 29977U 99025LB  25349.08708425  .00002064  00000+0  12117-2 0  9991", "line2": "2 29977  98.3968 210.9629 0128352 250.2626 265.3537 14.05097940963932"}}, "geometry": {"type": "Point", "coordinates": [-156.30818644634033, 51.95522684253053]}}, {"type": "Feature", "properties": {"norad_id": 29978, "name": "FENGYUN 1C DEB", "group": "fengyun-1c-debris", "lat": -68.66282510637319, "lon": 67.43723200603826, "alt_km": 930.1320462122621, "timestamp": "2025-12-18T23:35:49.333259+00:00", "meta": {"OBJECT_NAME": "FENGYUN 1C DEB", "OBJECT_ID": "1999-025LC", "EPOCH": "2025-12-18T03:35:22.424640", "MEAN_MOTION": 13.959085, "ECCENTRICITY": 0.0076573, "INCLINATION": 99.0605, "RA_OF_ASC_NODE": 42.5078, "ARG_OF_PERICENTER": 37.6433, "MEAN_ANOMALY": 25.6333, "EPHEMERIS_TYPE": 0, "CLASSIFICATION_TYPE": "U", "NORAD_CAT_ID": 29978, "ELEMENT_SET_NO": 999, "REV_AT_EPOCH": 96392, "BSTAR": 0.00020364054, "MEAN_MOTION_DOT": 2.42e-06, "MEAN_MOTION_DDOT": 0}, "tle": {"line1": "1 29978U 99025LC  25352.14956510  .00000242  00000+0  20364-3 0  9993", "line2": "2 29978  99.0605  42.5078 0076573  37.6433  25.6333 13.95908500963927"}}, "geometry": {"type": "Point", "coordinates": [67.43723200603826, -68.66282510637319]}}, {"type": "Feature", "properties": {"norad_id": 29979, "name": "FENGYUN 1C DEB", "group": "fengyun-1c-debris", "lat": -77.98171349877833, "lon": 152.1614447995433, "alt_km": 846.6132873404058, "timestamp": "2025-12-18T23:35:49.333270+00:00", "meta": {"OBJECT_NAME": "FENGYUN 1C DEB", "OBJECT_ID": "1999-025LD", "EPOCH": "2025-12-18T14:31:03.092160", "MEAN_MOTION": 14.25975773, "ECCENTRICITY": 0.01078479, "INCLINATION": 98.3699, "RA_OF_ASC_NODE": 15.5531, "ARG_OF_PERICENTER": 145.7985, "MEAN_ANOMALY": 333.4594, "EPHEMERIS_TYPE": 0, "CLASSIFICATION_TYPE": "U", "NORAD_CAT_ID": 29979, "ELEMENT_SET_NO": 999, "REV_AT_EPOCH": 98157, "BSTAR": 0.00033117772, "MEAN_MOTION_DOT": 7.99e-06, "MEAN_MOTION_DDOT": 0}, "tle": {"line1": "1 29979U 99025LD  25352.60489690  .00000799  00000+0  33118-3 0  9993", "line2": "2 29979  98.3699  15.5531 0107847 145.7985 333.4594 14.25975773981579"}}, "geometry": {"type": "Point", "coordinates": [152.1614447995433, -77.98171349877833]}}, {"type": "Feature", "properties": {"norad_id": 29980, "name": "FENGYUN 1C DEB", "group": "fengyun-1c-debris", "lat": 70.32618035475451, "lon": 6.684808592584934, "alt_km": 898.4271458958847, "timestamp": "2025-12-18T23:35:49.333280+00:00", "meta": {"OBJECT_NAME": "FENGYUN 1C DEB", "OBJECT_ID": "1999-025LE", "EPOCH": "2025-12-18T11:12:57.933216", "MEAN_MOTION": 14.06320566, "ECCENTRICITY": 0.00870282, "INCLINATION": 98.5516, "RA_OF_ASC_NODE": 161.3096, "ARG_OF_PERICENTER": 231.4486, "MEAN_ANOMALY": 146.8706, "EPHEMERIS_TYPE": 0, "CLASSIFICATION_TYPE": "U", "NORAD_CAT_ID": 29980, "ELEMENT_SET_NO": 999, "REV_AT_EPOCH": 97073, "BSTAR": 0.00023924095, "MEAN_MOTION_DOT": 3.67e-06, "MEAN_MOTION_DDOT": 0}, "tle": {"line1": "1 29980U 99025LE  25352.46733719  .00000367  00000+0  23924-3 0  9998", "line2": "2 29980  98.5516 161.3096 0087028 231.4486 146.8706 14.06320566970734"}}, "geometry": {"type": "Point", "coordinates": [6.684808592584934, 70.32618035475451]}}, {"type": "Feature", "properties": {"norad_id": 29982, "name": "FENGYUN 1C DEB", "group": "fengyun-1c-debris", "lat": 72.14386920115167, "lon": 144.2157889771036, "alt_km": 746.9253084586271, "timestamp": "2025-12-18T23:35:49.333290+00:00", "meta": {"OBJECT_NAME": "FENGYUN 1C DEB", "OBJECT_ID": "1999-025LG", "EPOCH": "2025-12-18T12:03:41.820768", "MEAN_MOTION": 14.6692608, "ECCENTRICITY": 0.01217104, "INCLINATION": 99.401, "RA_OF_ASC_NODE": 174.6154, "ARG_OF_PERICENTER": 270.6842, "MEAN_ANOMALY": 146.9649, "EPHEMERIS_TYPE": 0, "CLASSIFICATION_TYPE": "U", "NORAD_CAT_ID": 29982, "ELEMENT_SET_NO": 999, "REV_AT_EPOCH": 368, "BSTAR": 0.00059674542, "MEAN_MOTION_DOT": 3.659e-05, "MEAN_MOTION_DDOT": 0}, "tle": {"line1": "1 29982U 99025LG  25352.50256737  .00003659  00000+0  59675-3 0  9994", "line2": "2 29982  99.4010 174.6154 0121710 270.6842 146.9649 14.66926080  3682"}}, "geometry": {"type": "Point", "coordinates": [144.2157889771036, 72.14386920115167]}}, {"type": "Feature", "properties": {"norad_id": 29985, "name": "FENGYUN 1C DEB", "group": "fengyun-1c-debris", "lat": 41.57812168207314, "lon": -164.33578137185458, "alt_km": 842.5364165913106, "timestamp": "2025-12-18T23:35:49.333301+00:00", "meta": {"OBJECT_NAME": "FENGYUN 1C DEB", "OBJECT_ID": "1999-025LK", "EPOCH": "2025-12-18T14:58:55.930944", "MEAN_MOTION": 14.10325135, "ECCENTRICITY": 0.00284199, "INCLINATION": 98.7101, "RA_OF_ASC_NODE": 7.5001, "ARG_OF_PERICENTER": 192.0923, "MEAN_ANOMALY": 284.4729, "EPHEMERIS_TYPE": 0, "CLASSIFICATION_TYPE": "U", "NORAD_CAT_ID": 29985, "ELEMENT_SET_NO": 999, "REV_AT_EPOCH": 97431, "BSTAR": 5.0886829e-05, "MEAN_MOTION_DOT": 4.8e-07, "MEAN_MOTION_DDOT": 0}, "tle": {"line1": "1 29985U 99025LK  25352.62425846  .00000048  00000+0  50887-4 0  9995", "line2": "2 29985  98.7101   7.5001 0028419 192.0923 284.4729 14.10325135974319"}}, "geometry": {"type": "Point", "coordinates": [-164.33578137185458, 41.57812168207314]}}]}